[{"OBJECT_NAME":"STARLINK-1973","OBJECT_ID":"2021-012J","EPOCH":"2026-03-09T06:36:53.618112","MEAN_MOTION":15.30222617,"ECCENTRICITY":0.00014478,"INCLINATION":53.1604,"RA_OF_ASC_NODE":66.9145,"ARG_OF_PERICENTER":99.206,"MEAN_ANOMALY":260.9105,"EPHEMERIS_TYPE":0,"CLASSIFICATION_TYPE":"U","NORAD_CAT_ID":47628,"ELEMENT_SET_NO":999,"REV_AT_EPOCH":28002,"BSTAR":0.00043146016,"MEAN_MOTION_DOT":0.0001245,"MEAN_MOTION_DDOT":0},{"OBJECT_NAME":"OBJECT N","OBJECT_ID":"2024-205N","EPOCH":"2026-03-09T22:36:13.267872","MEAN_MOTION":15.33862123,"ECCENTRICITY":0.00094432,"INCLINATION":97.4211,"RA_OF_ASC_NODE":148.9295,"ARG_OF_PERICENTER":39.7652,"MEAN_ANOMALY":320.4281,"EPHEMERIS_TYPE":0,"CLASSIFICATION_TYPE":"U","NORAD_CAT_ID":61906,"ELEMENT_SET_NO":999,"REV_AT_EPOCH":7364,"BSTAR":0.00078005624,"MEAN_MOTION_DOT":0.00025559,"MEAN_MOTION_DDOT":0}]
